{
 "generated_at": "2026-07-06T09:00:32Z",
 "sources": [
  {
   "name": "CelesTrak",
   "url": "https://celestrak.org/NORAD/elements/",
   "license": "frei verfügbar; Attribution. Ursprünglich USSPACECOM/Space-Track."
  },
  {
   "name": "GCAT (J. McDowell, planet4589.org)",
   "url": "https://planet4589.org/space/gcat/",
   "license": "CC-BY 4.0"
  }
 ],
 "satellites": [
  {
   "norad": 60542,
   "name": "QPS-SAR-8 (AMATERU-IV)",
   "intl": "2024-149CC",
   "group": "sar",
   "gcat": {
    "class": "B",
    "category": "IMG-R",
    "owner": "QPS",
    "state": "J"
   },
   "omm": {
    "OBJECT_NAME": "QPS-SAR-8 (AMATERU-IV)",
    "OBJECT_ID": "2024-149CC",
    "EPOCH": "2026-07-05T05:18:10.435104",
    "MEAN_MOTION": 15.04334286,
    "ECCENTRICITY": 0.0004389,
    "INCLINATION": 97.6664,
    "RA_OF_ASC_NODE": 265.2209,
    "ARG_OF_PERICENTER": 67.8726,
    "MEAN_ANOMALY": 292.2966,
    "EPHEMERIS_TYPE": 0,
    "CLASSIFICATION_TYPE": "U",
    "NORAD_CAT_ID": 60542,
    "ELEMENT_SET_NO": 999,
    "REV_AT_EPOCH": 10298,
    "BSTAR": 0.00070374,
    "MEAN_MOTION_DOT": 0.00009758,
    "MEAN_MOTION_DDOT": 0
   }
  },
  {
   "norad": 63205,
   "name": "QPS-SAR-9 (SUSANOO-I)",
   "intl": "2025-050A",
   "group": "sar",
   "gcat": {
    "class": "B",
    "category": "IMG-R",
    "owner": "QPS",
    "state": "J"
   },
   "omm": {
    "OBJECT_NAME": "QPS-SAR-9 (SUSANOO-I)",
    "OBJECT_ID": "2025-050A",
    "EPOCH": "2026-07-05T14:09:14.748192",
    "MEAN_MOTION": 15.03331819,
    "ECCENTRICITY": 0.00058572,
    "INCLINATION": 42.0206,
    "RA_OF_ASC_NODE": 0.5355,
    "ARG_OF_PERICENTER": 273.7874,
    "MEAN_ANOMALY": 86.2283,
    "EPHEMERIS_TYPE": 0,
    "CLASSIFICATION_TYPE": "U",
    "NORAD_CAT_ID": 63205,
    "ELEMENT_SET_NO": 999,
    "REV_AT_EPOCH": 7173,
    "BSTAR": 0.00047037384,
    "MEAN_MOTION_DOT": 0.00006311,
    "MEAN_MOTION_DDOT": 0
   }
  },
  {
   "norad": 32382,
   "name": "RADARSAT-2",
   "intl": "2007-061A",
   "group": "resource",
   "gcat": {
    "class": "C",
    "category": "IMG-R",
    "owner": "CSA",
    "state": "CA"
   },
   "omm": {
    "OBJECT_NAME": "RADARSAT-2",
    "OBJECT_ID": "2007-061A",
    "EPOCH": "2026-07-05T13:55:20.081856",
    "MEAN_MOTION": 14.29981359,
    "ECCENTRICITY": 0.00013037,
    "INCLINATION": 98.5778,
    "RA_OF_ASC_NODE": 193.2499,
    "ARG_OF_PERICENTER": 84.7171,
    "MEAN_ANOMALY": 275.416,
    "EPHEMERIS_TYPE": 0,
    "CLASSIFICATION_TYPE": "U",
    "NORAD_CAT_ID": 32382,
    "ELEMENT_SET_NO": 999,
    "REV_AT_EPOCH": 96858,
    "BSTAR": 0.000019306553,
    "MEAN_MOTION_DOT": 6e-8,
    "MEAN_MOTION_DDOT": 0
   }
  },
  {
   "norad": 37791,
   "name": "RASAT",
   "intl": "2011-044D",
   "group": "resource",
   "gcat": {
    "class": null,
    "category": null,
    "owner": null,
    "state": null
   },
   "omm": {
    "OBJECT_NAME": "RASAT",
    "OBJECT_ID": "2011-044D",
    "EPOCH": "2026-07-05T14:07:21.179712",
    "MEAN_MOTION": 14.68187707,
    "ECCENTRICITY": 0.00215404,
    "INCLINATION": 98.0579,
    "RA_OF_ASC_NODE": 277.7051,
    "ARG_OF_PERICENTER": 131.395,
    "MEAN_ANOMALY": 341.6801,
    "EPHEMERIS_TYPE": 0,
    "CLASSIFICATION_TYPE": "U",
    "NORAD_CAT_ID": 37791,
    "ELEMENT_SET_NO": 999,
    "REV_AT_EPOCH": 79588,
    "BSTAR": 0.00022393813,
    "MEAN_MOTION_DOT": 0.00001244,
    "MEAN_MOTION_DDOT": 0
   }
  },
  {
   "norad": 44322,
   "name": "RCM-1",
   "intl": "2019-033A",
   "group": "sar",
   "gcat": {
    "class": "C",
    "category": "IMG-R",
    "owner": "CSA",
    "state": "CA"
   },
   "omm": {
    "OBJECT_NAME": "RCM-1",
    "OBJECT_ID": "2019-033A",
    "EPOCH": "2026-07-05T02:25:34.177728",
    "MEAN_MOTION": 14.92593314,
    "ECCENTRICITY": 0.0001494,
    "INCLINATION": 97.76,
    "RA_OF_ASC_NODE": 193.2939,
    "ARG_OF_PERICENTER": 89.7056,
    "MEAN_ANOMALY": 270.4334,
    "EPHEMERIS_TYPE": 0,
    "CLASSIFICATION_TYPE": "U",
    "NORAD_CAT_ID": 44322,
    "ELEMENT_SET_NO": 999,
    "REV_AT_EPOCH": 38475,
    "BSTAR": 0.00012079,
    "MEAN_MOTION_DOT": 0.00001187,
    "MEAN_MOTION_DDOT": 0
   }
  },
  {
   "norad": 37387,
   "name": "RESOURCESAT-2",
   "intl": "2011-015A",
   "group": "resource",
   "gcat": {
    "class": null,
    "category": "IMG",
    "owner": "ISRO",
    "state": "IN"
   },
   "omm": {
    "OBJECT_NAME": "RESOURCESAT-2",
    "OBJECT_ID": "2011-015A",
    "EPOCH": "2026-07-05T09:19:30.955872",
    "MEAN_MOTION": 14.21604661,
    "ECCENTRICITY": 0.0011006,
    "INCLINATION": 98.7636,
    "RA_OF_ASC_NODE": 253.704,
    "ARG_OF_PERICENTER": 199.1708,
    "MEAN_ANOMALY": 160.9057,
    "EPHEMERIS_TYPE": 0,
    "CLASSIFICATION_TYPE": "U",
    "NORAD_CAT_ID": 37387,
    "ELEMENT_SET_NO": 999,
    "REV_AT_EPOCH": 78876,
    "BSTAR": 0.000083183,
    "MEAN_MOTION_DOT": 0.00000138,
    "MEAN_MOTION_DDOT": 0
   }
  },
  {
   "norad": 41877,
   "name": "RESOURCESAT-2A",
   "intl": "2016-074A",
   "group": "resource",
   "gcat": {
    "class": "C",
    "category": "IMG",
    "owner": "ISRO",
    "state": "IN"
   },
   "omm": {
    "OBJECT_NAME": "RESOURCESAT-2A",
    "OBJECT_ID": "2016-074A",
    "EPOCH": "2026-07-05T15:38:30.108768",
    "MEAN_MOTION": 14.21607473,
    "ECCENTRICITY": 0.00029367,
    "INCLINATION": 98.7519,
    "RA_OF_ASC_NODE": 260.0052,
    "ARG_OF_PERICENTER": 47.814,
    "MEAN_ANOMALY": 312.3286,
    "EPHEMERIS_TYPE": 0,
    "CLASSIFICATION_TYPE": "U",
    "NORAD_CAT_ID": 41877,
    "ELEMENT_SET_NO": 999,
    "REV_AT_EPOCH": 49692,
    "BSTAR": 0.00012896067,
    "MEAN_MOTION_DOT": 0.00000239,
    "MEAN_MOTION_DDOT": 0
   }
  },
  {
   "norad": 29228,
   "name": "RESURS-DK 1",
   "intl": "2006-021A",
   "group": "resource",
   "gcat": {
    "class": null,
    "category": null,
    "owner": null,
    "state": null
   },
   "omm": {
    "OBJECT_NAME": "RESURS-DK 1",
    "OBJECT_ID": "2006-021A",
    "EPOCH": "2026-07-05T08:17:34.291392",
    "MEAN_MOTION": 15.13295823,
    "ECCENTRICITY": 0.0006699,
    "INCLINATION": 69.9334,
    "RA_OF_ASC_NODE": 292.5473,
    "ARG_OF_PERICENTER": 282.2262,
    "MEAN_ANOMALY": 77.8154,
    "EPHEMERIS_TYPE": 0,
    "CLASSIFICATION_TYPE": "U",
    "NORAD_CAT_ID": 29228,
    "ELEMENT_SET_NO": 999,
    "REV_AT_EPOCH": 10532,
    "BSTAR": 0.00017161,
    "MEAN_MOTION_DOT": 0.00002955,
    "MEAN_MOTION_DDOT": 0
   }
  }
 ]
}
